{
  "links" : {
    "next" : "https://api.nasa.gov/neo/rest/v1/feed?start_date=2003-02-09&end_date=2003-02-09&detailed=true&api_key=t0TVs3DtDT2H8Oy2Zy8m2eVrNsAVKAexjcZXUckd",
    "prev" : "https://api.nasa.gov/neo/rest/v1/feed?start_date=2003-02-07&end_date=2003-02-07&detailed=true&api_key=t0TVs3DtDT2H8Oy2Zy8m2eVrNsAVKAexjcZXUckd",
    "self" : "https://api.nasa.gov/neo/rest/v1/feed?start_date=2003-02-08&end_date=2003-02-08&detailed=true&api_key=t0TVs3DtDT2H8Oy2Zy8m2eVrNsAVKAexjcZXUckd"
  },
  "element_count" : 2,
  "near_earth_objects" : {
    "2003-02-08" : [ {
      "links" : {
        "self" : "https://api.nasa.gov/neo/rest/v1/neo/2405189?api_key=t0TVs3DtDT2H8Oy2Zy8m2eVrNsAVKAexjcZXUckd"
      },
      "neo_reference_id" : "2405189",
      "name" : "405189 (2003 BO1)",
      "nasa_jpl_url" : "http://ssd.jpl.nasa.gov/sbdb.cgi?sstr=2405189",
      "absolute_magnitude_h" : 20.6,
      "estimated_diameter" : {
        "kilometers" : {
          "estimated_diameter_min" : 0.2016299194,
          "estimated_diameter_max" : 0.4508582062
        },
        "meters" : {
          "estimated_diameter_min" : 201.6299194428,
          "estimated_diameter_max" : 450.8582061718
        },
        "miles" : {
          "estimated_diameter_min" : 0.1252869847,
          "estimated_diameter_max" : 0.2801502144
        },
        "feet" : {
          "estimated_diameter_min" : 661.5155049046,
          "estimated_diameter_max" : 1479.1936371367
        }
      },
      "is_potentially_hazardous_asteroid" : false,
      "close_approach_data" : [ {
        "close_approach_date" : "2003-02-08",
        "epoch_date_close_approach" : 1044691200000,
        "relative_velocity" : {
          "kilometers_per_second" : "7.2686054623",
          "kilometers_per_hour" : "26166.979664383",
          "miles_per_hour" : "16259.1435586829"
        },
        "miss_distance" : {
          "astronomical" : "0.2364527269",
          "lunar" : "91.9801101685",
          "kilometers" : "35372824",
          "miles" : "21979654"
        },
        "orbiting_body" : "Earth"
      } ],
      "orbital_data" : {
        "orbit_id" : "34",
        "orbit_determination_date" : "2017-07-28 06:19:28",
        "orbit_uncertainty" : "0",
        "minimum_orbit_intersection" : ".236171",
        "jupiter_tisserand_invariant" : "4.895",
        "epoch_osculation" : "2458000.5",
        "eccentricity" : ".08055046678882287",
        "semi_major_axis" : "1.328545753120669",
        "inclination" : "13.69555450680492",
        "ascending_node_longitude" : "140.8218825256296",
        "orbital_period" : "559.3236718536417",
        "perihelion_distance" : "1.221530772556491",
        "perihelion_argument" : "2.769315093841424",
        "aphelion_distance" : "1.435560733684847",
        "perihelion_time" : "2458279.024687385846",
        "mean_anomaly" : "180.7319080084602",
        "mean_motion" : ".6436344787749324",
        "equinox" : "J2000"
      }
    }, {
      "links" : {
        "self" : "https://api.nasa.gov/neo/rest/v1/neo/3689018?api_key=t0TVs3DtDT2H8Oy2Zy8m2eVrNsAVKAexjcZXUckd"
      },
      "neo_reference_id" : "3689018",
      "name" : "(2014 RX22)",
      "nasa_jpl_url" : "http://ssd.jpl.nasa.gov/sbdb.cgi?sstr=3689018",
      "absolute_magnitude_h" : 26.0,
      "estimated_diameter" : {
        "kilometers" : {
          "estimated_diameter_min" : 0.0167708462,
          "estimated_diameter_max" : 0.0375007522
        },
        "meters" : {
          "estimated_diameter_min" : 16.7708462163,
          "estimated_diameter_max" : 37.5007521798
        },
        "miles" : {
          "estimated_diameter_min" : 0.0104209175,
          "estimated_diameter_max" : 0.0233018799
        },
        "feet" : {
          "estimated_diameter_min" : 55.0224631002,
          "estimated_diameter_max" : 123.0339677816
        }
      },
      "is_potentially_hazardous_asteroid" : false,
      "close_approach_data" : [ {
        "close_approach_date" : "2003-02-08",
        "epoch_date_close_approach" : 1044691200000,
        "relative_velocity" : {
          "kilometers_per_second" : "16.77359839",
          "kilometers_per_hour" : "60384.9542041789",
          "miles_per_hour" : "37520.8622387022"
        },
        "miss_distance" : {
          "astronomical" : "0.3909378194",
          "lunar" : "152.074798584",
          "kilometers" : "58483464",
          "miles" : "36339940"
        },
        "orbiting_body" : "Earth"
      } ],
      "orbital_data" : {
        "orbit_id" : "4",
        "orbit_determination_date" : "2017-04-06 08:38:41",
        "orbit_uncertainty" : "7",
        "minimum_orbit_intersection" : ".0440399",
        "jupiter_tisserand_invariant" : "7.038",
        "epoch_osculation" : "2458000.5",
        "eccentricity" : ".2821089097887808",
        "semi_major_axis" : ".823202776856417",
        "inclination" : "20.02617052744297",
        "ascending_node_longitude" : "350.0654795734353",
        "orbital_period" : "272.808983244278",
        "perihelion_distance" : ".5909699389423562",
        "perihelion_argument" : "188.1102256247124",
        "aphelion_distance" : "1.055435614770478",
        "perihelion_time" : "2457878.575258807429",
        "mean_anomaly" : "160.8924541536192",
        "mean_motion" : "1.319604639549753",
        "equinox" : "J2000"
      }
    } ]
  }
}